# From MPC106342
C/1995 O1 (Hale-Bopp),e,88.9888,283.3636,130.6366,180.5232,0.0004064,0.99492929,0.0000,03/29.6435/1997,2000,g -2.0,4.0
# From NK 1615
P/1996 R2 (Lagerkvist),e,2.6004,40.0453,333.2971,3.774765,0.1343907,0.31383364,54.6282,03/24.0/2020,2000,g 11.5,4.0
# From MPC 30063
P/1997 B1 (Kobayashi),e,12.3407,328.8958,183.3900,8.560573,0.0393505,0.76007441,331.0845,03/24.0/2020,2000,g 15.0,2.0
# From MPC 75703
P/1998 VS24 (LINEAR),e,5.0240,159.0303,244.7583,4.531212,0.1021839,0.24170238,81.3254,03/24.0/2020,2000,g 13.0,2.0
# From NK 731
P/1999 RO28 (LONEOS),e,7.5655,137.8823,231.2804,3.426798,0.1553715,0.67189589,42.2565,03/24.0/2020,2000,g 20.0,2.0
# From MPC 75704
P/1999 XN120 (Catalina),e,5.0297,285.2952,161.9631,4.179091,0.1153669,0.21057448,117.2661,03/24.0/2020,2000,g 13.5,2.0
# From NK 744
P/2000 R2 (LINEAR),e,11.6833,160.3049,176.4852,3.465055,0.1528054,0.53146429,42.8870,03/24.0/2020,2000,g 18.0,4.0
# From MPC 43019
P/2001 H5 (NEAT),e,8.3692,328.6902,224.8709,6.098015,0.0654518,0.59906811,105.8028,03/24.0/2020,2000,g 12.0,4.0
# From MPC 75704
P/2001 Q6 (NEAT),e,56.8913,22.0923,42.9743,7.946882,0.0439956,0.82266565,296.7556,03/24.0/2020,2000,g 13.5,4.0
# From MPC 47727
P/2002 EJ57 (LINEAR),e,4.9756,330.3559,167.2810,6.473176,0.0598450,0.59336648,38.5478,03/24.0/2020,2000,g 12.5,4.0
# From MPC109588
P/2002 T5 (LINEAR),e,30.8534,123.0905,326.8097,7.000278,0.0532146,0.43755925,326.3682,03/24.0/2020,2000,g  8.0,4.0
# From MPC109588
P/2002 T6 (NEAT-LINEAR),e,10.8349,206.6918,219.4392,7.660945,0.0464815,0.55950451,286.3685,03/24.0/2020,2000,g 10.5,4.0
# From MPC 75007
C/2002 VQ94 (LINEAR),e,70.5174,34.9648,100.2012,187.1901,0.0003848,0.96348495,1.9890,03/24.0/2020,2000,g  9.5,2.0
# From MPC 50354
P/2003 F2 (NEAT),e,11.6058,359.0905,191.8377,6.484409,0.0596896,0.54197039,7.9370,03/24.0/2020,2000,g 16.5,2.0
# From MPC 50139
P/2003 QX29 (NEAT),e,11.3900,264.6045,37.3023,8.038438,0.0432461,0.47278265,275.2521,03/24.0/2020,2000,g  8.5,4.0
# From MPC105235
P/2003 T12 (SOHO),e,11.0160,174.5754,219.7710,2.586141,0.2369877,0.76960815,349.6065,03/24.0/2020,2000,g 17.0,4.0
# From MPC 82312
P/2004 A1 (LONEOS),e,10.5521,124.8533,21.5477,7.950073,0.0439691,0.30965413,250.2194,03/24.0/2020,2000,g  6.5,4.0
# From MPC 54558
P/2004 DO29 (Spacewatch-LINEAR),e,14.5311,147.3955,40.7632,7.280321,0.0501740,0.44165884,283.0618,03/24.0/2020,2000,g 13.5,2.0
# From MPC 54823
P/2004 FY140 (LINEAR),e,2.1350,326.7667,242.4737,4.899740,0.0908750,0.16910106,154.7129,03/24.0/2020,2000,g 12.5,2.0
# From MPC 53304
P/2004 R3 (LINEAR-NEAT),e,12.8082,305.5265,39.7271,4.771596,0.0945602,0.26044553,307.1847,03/24.0/2020,2000,g 14.5,4.0
# From MPC 55521
P/2004 V3 (Siding Spring),e,50.4188,356.1066,322.2476,7.147156,0.0515827,0.44619277,290.9914,03/24.0/2020,2000,g 11.5,4.0
# From MPC 75705
P/2004 V5 (LINEAR-Hill),e,19.3489,47.7486,87.8870,7.971265,0.0437939,0.44370430,241.5160,03/24.0/2020,2000,g  8.0,4.0
# From MPC 54164
P/2005 E1 (Tubbiolo),e,4.2637,335.5866,194.1867,7.034506,0.0528267,0.37539428,292.1077,03/24.0/2020,2000,g 10.0,4.0
# From MPC 54823
P/2005 GF8 (LONEOS),e,1.1930,314.8490,285.3952,5.874062,0.0692303,0.51814632,12.1508,03/24.0/2020,2000,g 11.5,4.0
# From MPC 79019
P/2005 J1 (McNaught),e,31.7694,268.7968,338.9379,3.568899,0.1461850,0.57012266,77.2102,03/24.0/2020,2000,g 16.5,4.0
# From MPC 75705
P/2005 JD108 (Catalina-NEAT),e,3.2808,223.8088,89.8787,6.519013,0.0592149,0.37652265,321.6039,03/24.0/2020,2000,g 10.0,4.0
# From MPC 74246
P/2005 L1 (McNaught),e,7.7383,138.2447,149.6236,3.976136,0.1243118,0.20928110,286.8668,03/24.0/2020,2000,g  9.5,4.0
# From MPC 75706
P/2005 S2 (Skiff),e,3.1356,161.1815,229.2230,8.019390,0.0434002,0.19629710,219.9922,03/24.0/2020,2000,g  7.5,4.0
# From MPC 75706
P/2005 SB216 (LONEOS),e,24.0619,1.2862,83.4254,7.123603,0.0518388,0.46291341,249.5739,03/24.0/2020,2000,g 12.0,2.0
# From MPC 55717
P/2005 T2 (Christensen),e,8.2929,260.1604,58.8050,3.847657,0.1305899,0.41669503,357.9928,03/24.0/2020,2000,g 14.5,4.0
# From MPC 73461
P/2005 T3 (Read),e,6.2272,27.7894,7.3546,7.570526,0.0473168,0.17339894,248.7604,03/24.0/2020,2000,g  9.0,4.0
# From MPC 73461
P/2005 T4 (SWAN),e,160.1428,25.5676,41.4730,9.359767,0.0344197,0.93018720,182.1263,03/24.0/2020,2000,g 15.0,4.0
# From MPC 75706
P/2005 T5 (Broughton),e,21.3439,57.0156,304.4858,7.293484,0.0500382,0.55152347,264.4487,03/24.0/2020,2000,g 11.0,4.0
# From MPC 56954
P/2005 W3 (Kowalski),e,16.4112,210.1331,200.5343,6.339135,0.0617532,0.54361599,326.3182,03/24.0/2020,2000,g 12.0,4.0
# From MPC 75706
P/2005 XA54 (LONEOS-Hill),e,17.1183,143.6761,15.1501,6.051191,0.0662129,0.71018233,339.3880,03/24.0/2020,2000,g 14.0,4.0
# From MPC 75706
P/2005 Y2 (McNaught),e,19.1098,94.5149,194.1871,6.359444,0.0614576,0.46845850,346.9940,03/24.0/2020,2000,g  9.0,4.0
# From MPC 56954
P/2006 F4 (Spacewatch),e,12.3862,183.9900,31.2324,3.529208,0.1486580,0.33877542,34.7984,03/24.0/2020,2000,g 15.0,4.0
# From MPC 58118
P/2006 H1 (McNaught),e,12.8050,359.8918,309.2775,5.771496,0.0710839,0.58024001,7.6406,03/24.0/2020,2000,g 12.5,4.0
# From MPC 75707
P/2006 HR30 (Siding Spring),e,31.8360,309.8852,117.3139,7.811017,0.0451484,0.84173007,218.8171,03/24.0/2020,2000,g 11.0,4.0
# From MPC 75707
P/2006 S4 (Christensen),e,39.5436,36.1044,305.1717,6.305529,0.0622475,0.50751837,318.7920,03/24.0/2020,2000,g 11.0,4.0
# From MPC 75707
P/2007 A2 (Christensen),e,26.4882,300.9087,186.8073,6.320215,0.0620306,0.55744015,299.1695,03/24.0/2020,2000,g 13.5,4.0
# From MPC 59319
P/2007 B1 (Christensen),e,12.3773,77.6665,46.7792,5.816928,0.0702528,0.58079428,338.3820,03/24.0/2020,2000,g 13.5,4.0
# From MPC 75707
P/2007 C2 (Catalina),e,8.6885,275.7450,179.6861,7.001313,0.0532028,0.46849872,243.0548,03/24.0/2020,2000,g 10.0,4.0
# From MPC 84315
C/2007 D1 (LINEAR),e,41.5002,171.1288,340.2002,1776,0.0000132,0.99502340,0.0000,06/11.6676/2007,2000,g  3.5,4.0
# From MPC 82314
P/2007 K2 (Gibbs),e,7.6430,188.6505,347.5032,7.259213,0.0503929,0.68382408,235.3826,03/24.0/2020,2000,g 14.0,4.0
# From MPC 60925
P/2007 Q2 (Gilmore),e,10.2008,172.1902,162.7940,5.654460,0.0733023,0.67034130,341.8170,03/24.0/2020,2000,g 16.0,4.0
# From MPC 75708
P/2007 R2 (Gibbs),e,1.2165,11.4419,352.3589,3.574867,0.1458190,0.54250411,334.3104,03/24.0/2020,2000,g 17.0,4.0
# From MPC 75708
P/2007 R4 (Garradd),e,20.2361,87.2165,282.7777,5.913998,0.0685303,0.66972629,317.1629,03/24.0/2020,2000,g 14.5,4.0
# From MPC 73462
P/2007 S1 (Zhao),e,5.9625,141.3987,245.8611,3.809820,0.1325402,0.33985307,236.8681,03/24.0/2020,2000,g 13.0,4.0
# From MPC 61994
P/2007 T2 (Kowalski),e,9.7392,3.3807,359.6355,3.047599,0.1852539,0.78498330,112.9057,03/24.0/2020,2000,g 18.5,4.0
# From MPC 75708
P/2007 VQ11 (Catalina),e,12.3204,163.8208,277.6872,5.424063,0.0780220,0.50309198,346.1051,03/24.0/2020,2000,g 12.0,4.0
# From MPC 75708
P/2008 CL94 (Lemmon),e,8.3491,33.3447,80.7123,6.158233,0.0644941,0.12005366,324.5737,03/24.0/2020,2000,g  8.0,4.0
# From MPC 75709
P/2008 L2 (Hill),e,25.8479,218.0037,141.1977,6.028620,0.0665851,0.61270635,283.8506,03/24.0/2020,2000,g 12.5,4.0
# From MPC 64114
P/2008 O3 (Boattini),e,32.2204,47.6152,341.0782,8.225984,0.0417756,0.69448413,180.6715,03/24.0/2020,2000,g 13.0,4.0
# From MPC 75709
P/2008 QP20 (LINEAR-Hill),e,7.5155,322.1488,75.7712,3.546237,0.1475885,0.49326253,264.2210,03/24.0/2020,2000,g 15.5,4.0
# From MPC 66204
P/2008 WZ96 (LINEAR),e,7.1344,56.6662,341.8043,3.490128,0.1511618,0.47194047,281.3729,03/24.0/2020,2000,g 13.5,4.0
# From MPC 75710
P/2008 Y3 (McNaught),e,38.7590,262.7795,238.3440,8.044236,0.0431993,0.44580678,177.1659,03/24.0/2020,2000,g  8.5,4.0
# From MPC 75710
P/2009 B1 (Boattini),e,22.2196,297.0906,128.9386,6.733841,0.0564040,0.63444889,230.6057,03/24.0/2020,2000,g 13.0,4.0
# From MPC 66466
C/2009 G1 (STEREO),e,108.7321,120.4414,175.3421,411.5984,0.0001180,0.99725157,0.0000,04/14.3592/2009,2000,g  9.0,4.0
# From MPC 75710
P/2009 O3 (Hill),e,16.2491,183.7403,154.3460,7.772874,0.0454812,0.68707965,180.2920,03/24.0/2020,2000,g 12.5,4.0
# From MPC 98557
P/2009 Q1 (Hill),e,14.5042,173.9536,157.1121,5.519812,0.0760007,0.49451541,299.8607,03/24.0/2020,2000,g 11.5,4.0
# From MPC112389
P/2009 Q4 (Boattini),e,11.0150,127.4644,320.2171,3.128149,0.1781447,0.58250171,310.4799,03/24.0/2020,2000,g 15.5,4.0
# From MPC 68902
P/2009 Q5 (McNaught),e,40.9532,160.2425,209.0226,7.440892,0.0485586,0.60809032,187.3479,03/24.0/2020,2000,g 10.0,4.0
# From MPC112389
P/2009 T2 (La Sagra),e,27.5227,215.7541,216.4752,7.725781,0.0458977,0.76478129,171.5847,03/24.0/2020,2000,g 14.0,4.0
# From MPC 75711
P/2009 U4 (McNaught),e,10.0819,55.3598,259.8550,5.079618,0.0860910,0.67586119,332.9538,03/24.0/2020,2000,g 14.0,4.0
# From MPC105235
P/2009 WX51 (Catalina),e,9.5961,31.6886,118.0726,3.078505,0.1824712,0.74017456,316.6880,03/24.0/2020,2000,g 19.0,2.0
# From MPC 74247
P/2009 Y2 (Kowalski),e,29.9291,262.0239,172.2172,6.547427,0.0588299,0.63574797,215.9161,03/24.0/2020,2000,g 13.0,4.0
# From MPC 75711
P/2010 A3 (Hill),e,14.9015,64.3196,41.7380,6.073986,0.0658405,0.73283818,240.3424,03/24.0/2020,2000,g 14.0,4.0
# From MPC 72851
P/2010 A5 (LINEAR),e,5.7984,277.6649,307.0847,5.085071,0.0859525,0.66519781,310.8013,03/24.0/2020,2000,g 13.0,4.0
# From MPC105235
P/2010 B2 (WISE),e,8.9307,0.8544,155.9294,3.109759,0.1797272,0.47992873,314.0644,03/24.0/2020,2000,g 17.0,4.0
# From MPC 75008
P/2010 C1 (Scotti),e,9.1291,141.8878,3.9017,7.101083,0.0520855,0.25869250,196.6449,03/24.0/2020,2000,g  9.5,4.0
# From MPC 75008
P/2010 D2 (WISE),e,57.0866,319.8894,120.1634,6.714659,0.0566458,0.45067466,208.7314,03/24.0/2020,2000,g 16.0,4.0
# From MPC 75009
P/2010 E2 (Jarnac),e,15.4213,177.8252,8.3724,8.635799,0.0388374,0.72081041,141.3481,03/24.0/2020,2000,g 14.0,4.0
# From MPC 72851
P/2010 H2 (Vales),e,14.2725,64.2199,128.3300,3.836002,0.1311855,0.19548809,121.4884,03/24.0/2020,2000,g  6.0,4.0
# From MPC 70361
P/2010 H3 (SOHO),e,23.3738,77.5949,25.6541,3.065897,0.1835979,0.98544035,0.0000,02/07.8453/2021,2000,g 20.0,2.0
# From MPC 73463
